CCSDS_OMM_VERS = 2.0
CREATION_DATE  = 
ORIGINATOR     = 

OBJECT_NAME    = ALOS-2
OBJECT_ID      = 2014-029A
CENTER_NAME    = EARTH
REF_FRAME      = TEME
TIME_SYSTEM    = UTC
MEAN_ELEMENT_THEORY = SGP/SGP4

EPOCH          = 2026-04-03T03:13:18.249600
MEAN_MOTION    = 14.79449708
ECCENTRICITY   = .00018735
INCLINATION    = 97.9197
RA_OF_ASC_NODE = 191.3762
ARG_OF_PERICENTER = 101.9153
MEAN_ANOMALY   = 258.2269

EPHEMERIS_TYPE = 0
CLASSIFICATION_TYPE = U
NORAD_CAT_ID   = 39766
ELEMENT_SET_NO = 999
REV_AT_EPOCH   = 64048
BSTAR          = .36025367E-4
MEAN_MOTION_DOT = .218E-5
MEAN_MOTION_DDOT = 0

CCSDS_OMM_VERS = 2.0
CREATION_DATE  = 
ORIGINATOR     = 

OBJECT_NAME    = YAOGAN-29
OBJECT_ID      = 2015-069A
CENTER_NAME    = EARTH
REF_FRAME      = TEME
TIME_SYSTEM    = UTC
MEAN_ELEMENT_THEORY = SGP/SGP4

EPOCH          = 2026-04-03T06:52:46.406208
MEAN_MOTION    = 14.83022027
ECCENTRICITY   = .00000536
INCLINATION    = 98.0103
RA_OF_ASC_NODE = 121.7784
ARG_OF_PERICENTER = 291.4724
MEAN_ANOMALY   = 68.6484

EPHEMERIS_TYPE = 0
CLASSIFICATION_TYPE = U
NORAD_CAT_ID   = 41038
ELEMENT_SET_NO = 999
REV_AT_EPOCH   = 55952
BSTAR          = .7494823E-4
MEAN_MOTION_DOT = .555E-5
MEAN_MOTION_DDOT = 0

CCSDS_OMM_VERS = 2.0
CREATION_DATE  = 
ORIGINATOR     = 

OBJECT_NAME    = ASTRO-H (HITOMI)
OBJECT_ID      = 2016-012A
CENTER_NAME    = EARTH
REF_FRAME      = TEME
TIME_SYSTEM    = UTC
MEAN_ELEMENT_THEORY = SGP/SGP4

EPOCH          = 2026-04-02T23:00:24.056928
MEAN_MOTION    = 15.10165628
ECCENTRICITY   = .00096592
INCLINATION    = 30.9992
RA_OF_ASC_NODE = 199.9149
ARG_OF_PERICENTER = 215.9579
MEAN_ANOMALY   = 144.0410

EPHEMERIS_TYPE = 0
CLASSIFICATION_TYPE = U
NORAD_CAT_ID   = 41337
ELEMENT_SET_NO = 999
REV_AT_EPOCH   = 55590
BSTAR          = .27380662E-3
MEAN_MOTION_DOT = .4679E-4
MEAN_MOTION_DDOT = 0

CCSDS_OMM_VERS = 2.0
CREATION_DATE  = 
ORIGINATOR     = 

OBJECT_NAME    = HXMT (HUIYAN)
OBJECT_ID      = 2017-034A
CENTER_NAME    = EARTH
REF_FRAME      = TEME
TIME_SYSTEM    = UTC
MEAN_ELEMENT_THEORY = SGP/SGP4

EPOCH          = 2026-04-03T06:16:11.166240
MEAN_MOTION    = 15.17788888
ECCENTRICITY   = .00311061
INCLINATION    = 43.0138
RA_OF_ASC_NODE = 240.0309
ARG_OF_PERICENTER = 28.0079
MEAN_ANOMALY   = 332.2436

EPHEMERIS_TYPE = 0
CLASSIFICATION_TYPE = U
NORAD_CAT_ID   = 42758
ELEMENT_SET_NO = 999
REV_AT_EPOCH   = 48627
BSTAR          = .52998798E-3
MEAN_MOTION_DOT = .10817E-3
MEAN_MOTION_DDOT = 0

CCSDS_OMM_VERS = 2.0
CREATION_DATE  = 
ORIGINATOR     = 

OBJECT_NAME    = SAOCOM 1A
OBJECT_ID      = 2018-076A
CENTER_NAME    = EARTH
REF_FRAME      = TEME
TIME_SYSTEM    = UTC
MEAN_ELEMENT_THEORY = SGP/SGP4

EPOCH          = 2026-04-02T22:18:09.864576
MEAN_MOTION    = 14.82144894
ECCENTRICITY   = .00013445
INCLINATION    = 97.8897
RA_OF_ASC_NODE = 280.7601
ARG_OF_PERICENTER = 86.3183
MEAN_ANOMALY   = 273.8184

EPHEMERIS_TYPE = 0
CLASSIFICATION_TYPE = U
NORAD_CAT_ID   = 43641
ELEMENT_SET_NO = 999
REV_AT_EPOCH   = 40495
BSTAR          = -.2337162E-5
MEAN_MOTION_DOT = -.71E-6
MEAN_MOTION_DDOT = 0

CCSDS_OMM_VERS = 2.0
CREATION_DATE  = 
ORIGINATOR     = 

OBJECT_NAME    = H-2A R/B
OBJECT_ID      = 2018-084L
CENTER_NAME    = EARTH
REF_FRAME      = TEME
TIME_SYSTEM    = UTC
MEAN_ELEMENT_THEORY = SGP/SGP4

EPOCH          = 2026-04-03T04:46:28.036704
MEAN_MOTION    = 15.42442613
ECCENTRICITY   = .00233392
INCLINATION    = 98.8687
RA_OF_ASC_NODE = 315.8431
ARG_OF_PERICENTER = 298.8704
MEAN_ANOMALY   = 61.0196

EPHEMERIS_TYPE = 0
CLASSIFICATION_TYPE = U
NORAD_CAT_ID   = 43682
ELEMENT_SET_NO = 999
REV_AT_EPOCH   = 40955
BSTAR          = .75492633E-3
MEAN_MOTION_DOT = .32968E-3
MEAN_MOTION_DDOT = 0

CCSDS_OMM_VERS = 2.0
CREATION_DATE  = 
ORIGINATOR     = 

OBJECT_NAME    = SAOCOM 1B
OBJECT_ID      = 2020-059A
CENTER_NAME    = EARTH
REF_FRAME      = TEME
TIME_SYSTEM    = UTC
MEAN_ELEMENT_THEORY = SGP/SGP4

EPOCH          = 2026-04-03T07:09:14.486976
MEAN_MOTION    = 14.82149434
ECCENTRICITY   = .00014829
INCLINATION    = 97.8885
RA_OF_ASC_NODE = 280.2201
ARG_OF_PERICENTER = 83.8572
MEAN_ANOMALY   = 276.2810

EPHEMERIS_TYPE = 0
CLASSIFICATION_TYPE = U
NORAD_CAT_ID   = 46265
ELEMENT_SET_NO = 999
REV_AT_EPOCH   = 30239
BSTAR          = .10839176E-3
MEAN_MOTION_DOT = .811E-5
MEAN_MOTION_DDOT = 0

CCSDS_OMM_VERS = 2.0
CREATION_DATE  = 
ORIGINATOR     = 

OBJECT_NAME    = CSS (TIANHE)
OBJECT_ID      = 2021-035A
CENTER_NAME    = EARTH
REF_FRAME      = TEME
TIME_SYSTEM    = UTC
MEAN_ELEMENT_THEORY = SGP/SGP4

EPOCH          = 2026-04-03T06:41:02.129568
MEAN_MOTION    = 15.61924300
ECCENTRICITY   = .00037723
INCLINATION    = 41.4675
RA_OF_ASC_NODE = 58.4057
ARG_OF_PERICENTER = 112.9182
MEAN_ANOMALY   = 247.2056

EPHEMERIS_TYPE = 0
CLASSIFICATION_TYPE = U
NORAD_CAT_ID   = 48274
ELEMENT_SET_NO = 999
REV_AT_EPOCH   = 28145
BSTAR          = .3541195E-3
MEAN_MOTION_DOT = .31513E-3
MEAN_MOTION_DDOT = 0

CCSDS_OMM_VERS = 2.0
CREATION_DATE  = 
ORIGINATOR     = 

OBJECT_NAME    = COSMOS 2550
OBJECT_ID      = 2021-056A
CENTER_NAME    = EARTH
REF_FRAME      = TEME
TIME_SYSTEM    = UTC
MEAN_ELEMENT_THEORY = SGP/SGP4

EPOCH          = 2026-04-01T11:17:21.715008
MEAN_MOTION    = 15.33839536
ECCENTRICITY   = .00083284
INCLINATION    = 67.1445
RA_OF_ASC_NODE = 331.9738
ARG_OF_PERICENTER = 269.3207
MEAN_ANOMALY   = 90.6993

EPHEMERIS_TYPE = 0
CLASSIFICATION_TYPE = U
NORAD_CAT_ID   = 48865
ELEMENT_SET_NO = 999
REV_AT_EPOCH   = 26695
BSTAR          = .17705072E-3
MEAN_MOTION_DOT = .5639E-4
MEAN_MOTION_DDOT = 0

CCSDS_OMM_VERS = 2.0
CREATION_DATE  = 
ORIGINATOR     = 

OBJECT_NAME    = CZ-2C R/B
OBJECT_ID      = 2022-058K
CENTER_NAME    = EARTH
REF_FRAME      = TEME
TIME_SYSTEM    = UTC
MEAN_ELEMENT_THEORY = SGP/SGP4

EPOCH          = 2026-04-02T23:50:45.899520
MEAN_MOTION    = 15.56162128
ECCENTRICITY   = .00412092
INCLINATION    = 50.1880
RA_OF_ASC_NODE = 193.0991
ARG_OF_PERICENTER = 305.1850
MEAN_ANOMALY   = 54.5265

EPHEMERIS_TYPE = 0
CLASSIFICATION_TYPE = U
NORAD_CAT_ID   = 52794
ELEMENT_SET_NO = 999
REV_AT_EPOCH   = 21391
BSTAR          = .86704736E-3
MEAN_MOTION_DOT = .64357E-3
MEAN_MOTION_DDOT = 0

CCSDS_OMM_VERS = 2.0
CREATION_DATE  = 
ORIGINATOR     = 

OBJECT_NAME    = CZ-2C R/B
OBJECT_ID      = 2022-132E
CENTER_NAME    = EARTH
REF_FRAME      = TEME
TIME_SYSTEM    = UTC
MEAN_ELEMENT_THEORY = SGP/SGP4

EPOCH          = 2026-04-02T22:57:29.310336
MEAN_MOTION    = 15.64206842
ECCENTRICITY   = .00162294
INCLINATION    = 97.2951
RA_OF_ASC_NODE = 97.0516
ARG_OF_PERICENTER = 10.2964
MEAN_ANOMALY   = 349.8625

EPHEMERIS_TYPE = 0
CLASSIFICATION_TYPE = U
NORAD_CAT_ID   = 54039
ELEMENT_SET_NO = 999
REV_AT_EPOCH   = 19416
BSTAR          = .73913508E-3
MEAN_MOTION_DOT = .71067E-3
MEAN_MOTION_DDOT = 0

CCSDS_OMM_VERS = 2.0
CREATION_DATE  = 
ORIGINATOR     = 

OBJECT_NAME    = GSLV R/B
OBJECT_ID      = 2022-138AN
CENTER_NAME    = EARTH
REF_FRAME      = TEME
TIME_SYSTEM    = UTC
MEAN_ELEMENT_THEORY = SGP/SGP4

EPOCH          = 2026-04-03T06:07:54.482016
MEAN_MOTION    = 14.96936789
ECCENTRICITY   = .00237999
INCLINATION    = 87.3852
RA_OF_ASC_NODE = 158.1372
ARG_OF_PERICENTER = 65.8364
MEAN_ANOMALY   = 294.5352

EPHEMERIS_TYPE = 0
CLASSIFICATION_TYPE = U
NORAD_CAT_ID   = 54149
ELEMENT_SET_NO = 999
REV_AT_EPOCH   = 18760
BSTAR          = .46317707E-3
MEAN_MOTION_DOT = .5377E-4
MEAN_MOTION_DDOT = 0

